{
  "norad_id": 65508,
  "name": "STARLINK-35119",
  "history": [
    {
      "epoch": "2026-03-28T16:26:55.175712Z",
      "apogee_km": 476.2862726905023,
      "perigee_km": 474.2823323016519,
      "latitude_deg": -1.947411233873816e-05,
      "longitude_deg": 110.27022838809621,
      "height_km": 475.78287819990464,
      "semi_major_axis_km": 6853.421302496076,
      "eccentricity": 0.0001462,
      "inclination_deg": 53.158,
      "raan_deg": 183.1024,
      "arg_perigee_deg": 66.5216,
      "mean_anomaly_deg": 293.5938,
      "mean_motion_rev_day": 15.30176813
    },
    {
      "epoch": "2026-03-29T17:31:45.754752Z",
      "apogee_km": 476.05132686053275,
      "perigee_km": 474.0748639530166,
      "latitude_deg": 2.6175107694278235e-05,
      "longitude_deg": 88.1768882266952,
      "height_km": 475.6356225103058,
      "semi_major_axis_km": 6853.200095406774,
      "eccentricity": 0.0001442,
      "inclination_deg": 53.1592,
      "raan_deg": 178.2498,
      "arg_perigee_deg": 70.7778,
      "mean_anomaly_deg": 289.3379,
      "mean_motion_rev_day": 15.302509
    },
    {
      "epoch": "2026-03-30T06:04:11.039520Z",
      "apogee_km": 475.7797276015508,
      "perigee_km": 474.3793413348976,
      "latitude_deg": 5.7327231200522914e-05,
      "longitude_deg": -102.8719554905583,
      "height_km": 475.5830270793356,
      "semi_major_axis_km": 6853.216534468224,
      "eccentricity": 0.00010217,
      "inclination_deg": 53.1592,
      "raan_deg": 175.8213,
      "arg_perigee_deg": 55.6496,
      "mean_anomaly_deg": 304.4602,
      "mean_motion_rev_day": 15.30245394
    },
    {
      "epoch": "2026-03-30T12:20:23.793792Z",
      "apogee_km": 476.2011146517052,
      "perigee_km": 474.23159796416985,
      "latitude_deg": 5.850948725591325e-05,
      "longitude_deg": 161.60289453631273,
      "height_km": 476.1504127215938,
      "semi_major_axis_km": 6853.353356307937,
      "eccentricity": 0.00014369,
      "inclination_deg": 53.1599,
      "raan_deg": 174.6068,
      "arg_perigee_deg": 92.1085,
      "mean_anomaly_deg": 268.0081,
      "mean_motion_rev_day": 15.30199569
    },
    {
      "epoch": "2026-03-30T15:28:30.391680Z",
      "apogee_km": 476.0319556303393,
      "perigee_km": 474.40866941729564,
      "latitude_deg": -2.090326678939144e-06,
      "longitude_deg": 113.84110164196484,
      "height_km": 476.18160780371903,
      "semi_major_axis_km": 6853.357312523817,
      "eccentricity": 0.00011843,
      "inclination_deg": 53.1593,
      "raan_deg": 174.0013,
      "arg_perigee_deg": 94.4642,
      "mean_anomaly_deg": 265.6494,
      "mean_motion_rev_day": 15.30198244
    }
  ]
}